NORAD_CAT_ID,OBJECT_NAME,OBJECT_TYPE,EPOCH,MEAN_MOTION,ECCENTRICITY,INCLINATION,RA_OF_ASC_NODE,ARG_OF_PERICENTER,MEAN_ANOMALY,BSTAR,MEAN_MOTION_DOT,MEAN_MOTION_DDOT,TLE_LINE0,TLE_LINE1,TLE_LINE2,SEMIMAJOR_AXIS,PERIOD,APOGEE,PERIGEE,DECAYED
53640.0,STARLINK-4597,PAYLOAD,2022-09-22 22:00:00,15.73179302,0.0001291999999999,53.2148,160.3327,126.8985,323.505,-2.427300000000001e-05,-4.022e-05,0.0,0 STARLINK-4597,1 53640U 22104BE  22265.91667824 -.00004022  00000-0 -24273-4 0  9999,2 53640  53.2148 160.3327 0001292 126.8985 323.5050 15.73179302  1308,6727.954000000002,91.534,350.68800000000016,348.95,0.0
53640.0,STARLINK-4597,PAYLOAD,2022-09-23 14:00:01,15.73202511,0.0001421,53.2172,157.0318,146.444,121.7694,2.2679e-05,2.564e-05,0.0,0 STARLINK-4597,1 53640U 22104BE  22266.58334491  .00002564  00000-0  22679-4 0  9999,2 53640  53.2172 157.0318 0001421 146.4440 121.7694 15.73202511  1307,6727.888000000001,91.533,350.709,348.797,0.0
53640.0,STARLINK-4597,PAYLOAD,2022-09-23 22:00:00,15.73259801,0.0001151,53.2145,155.3842,137.8483,219.3978,-0.00072198,-0.00100993,0.0,0 STARLINK-4597,1 53640U 22104BE  22266.91667824 -.00100993  00000-0 -72198-3 0  9992,2 53640  53.2145 155.3842 0001151 137.8483 219.3978 15.73259801  4240,6727.725,91.53,350.36400000000015,348.815,0.0
53640.0,STARLINK-4597,PAYLOAD,2022-09-24 06:00:00,15.73234156,0.0001085,53.2145,153.7349,128.6144,317.5808,-0.00022004,-0.0003143,0.0,0 STARLINK-4597,1 53640U 22104BE  22267.25001157 -.00031430  00000-0 -22004-3 0  9991,2 53640  53.2145 153.7349 0001085 128.6144 317.5808 15.73234156  4308,6727.7980000000025,91.531,350.39300000000014,348.93300000000005,0.0
53640.0,STARLINK-4597,PAYLOAD,2022-09-24 14:00:01,15.73163863,0.0001309,53.2146,152.0833,136.3806,38.8462,0.0007488999999999,0.0010565,0.0,0 STARLINK-4597,1 53640U 22104BE  22267.58335648  .00105650  00000-0  74890-3 0  9996,2 53640  53.2146 152.0833 0001309 136.3806  38.8462 15.73163863  1301,6727.998000000001,91.535,350.744,348.983,0.0
53640.0,STARLINK-4597,PAYLOAD,2022-09-24 22:00:00,15.7324987,0.0001193,53.2145,150.4357,129.7748,134.3158,-0.00053072,-0.00074603,0.0,0 STARLINK-4597,1 53640U 22104BE  22267.91667824 -.00074603  00000-0 -53072-3 0  9991,2 53640  53.2145 150.4357 0001193 129.7748 134.3158 15.73249870  4406,6727.753000000002,91.53,350.421,348.815,0.0
53640.0,STARLINK-4597,PAYLOAD,2022-09-25 14:00:01,15.73126683,0.0001486999999999,53.2141,147.1348,134.7504,307.2416,0.00056491,0.00079162,0.0,0 STARLINK-4597,1 53640U 22104BE  22268.58334491  .00079162  00000-0  56491-3 0  9997,2 53640  53.2141 147.1348 0001487 134.7504 307.2416 15.73126683  1307,6728.104,91.537,350.97,348.969,0.0
53640.0,STARLINK-4597,PAYLOAD,2022-09-25 22:00:01,15.73170368,0.000132,53.2143,145.4873,126.0581,44.8825,0.00030692,0.00042618,0.0,0 STARLINK-4597,1 53640U 22104BE  22268.91668981  .00042618  00000-0  30692-3 0  9999,2 53640  53.2143 145.4873 0001320 126.0581  44.8825 15.73170368  1305,6727.98,91.535,350.733,348.957,0.0
53640.0,STARLINK-4597,PAYLOAD,2022-09-26 10:00:00,15.73179902,0.0001446,53.2143,143.0116,127.8552,356.3685,-0.00012547,-0.00018176,0.0,0 STARLINK-4597,1 53640U 22104BE  22269.41667824 -.00018176  00000-0 -12547-3 0  9993,2 53640  53.2143 143.0116 0001446 127.8552 356.3685 15.73179902  4643,6727.9519999999975,91.534,350.79,348.845,0.0
53640.0,STARLINK-4597,PAYLOAD,2022-09-26 14:00:01,15.73135546,0.0001610999999999,53.2141,142.1861,126.88,221.8031,0.00066813,0.00093943,0.0,0 STARLINK-4597,1 53640U 22104BE  22269.58334491  .00093943  00000-0  66813-3 0  9990,2 53640  53.2141 142.1861 0001611 126.8800 221.8031 15.73135546  1304,6728.079000000002,91.537,351.028,348.86,0.0
53640.0,STARLINK-4597,PAYLOAD,2022-09-26 22:00:00,15.73218486,0.0001431,53.2138,140.5385,121.3884,316.1786,-0.00033884,-0.00047942,0.0,0 STARLINK-4597,1 53640U 22104BE  22269.91667824 -.00047942  00000-0 -33884-3 0  9998,2 53640  53.2138 140.5385 0001431 121.3884 316.1786 15.73218486  4724,6727.842,91.532,350.67,348.745,0.0
53640.0,STARLINK-4597,PAYLOAD,2022-09-27 14:00:01,15.73199553,0.0001402,53.2134,137.2373,138.4872,116.9447,0.00074196,0.00104815,0.0,0 STARLINK-4597,1 53640U 22104BE  22270.58334491  .00104815  00000-0  74196-3 0  9996,2 53640  53.2134 137.2373 0001402 138.4872 116.9447 15.73199553  4828,6727.896,91.533,350.705,348.8180000000001,0.0
53640.0,STARLINK-4597,PAYLOAD,2022-09-27 22:00:01,15.73282082,0.000132,53.2134,135.5895,128.4103,216.0588,-0.00038403,-0.00054358,0.0,0 STARLINK-4597,1 53640U 22104BE  22270.91668981 -.00054358  00000-0 -38403-3 0  9996,2 53640  53.2134 135.5895 0001320 128.4103 216.0588 15.73282082  1301,6727.661,91.528,350.414,348.63800000000015,0.0
53640.0,STARLINK-4597,PAYLOAD,2022-09-28 06:00:00,15.73301187,0.000132,53.2134,133.9392,125.2677,308.1348,-0.00054044,-0.00076112,0.0,0 STARLINK-4597,1 53640U 22104BE  22271.25001157 -.00076112  00000-0 -54044-3 0  9991,2 53640  53.2134 133.9392 0001320 125.2677 308.1348 15.73301187  4933,6727.607,91.527,350.36,348.584,0.0
53640.0,STARLINK-4597,PAYLOAD,2022-09-28 14:00:01,15.73250953,0.0001482,53.2139,132.2879,132.9393,29.4842,-0.00050272,-0.00070738,0.0,0 STARLINK-4597,1 53640U 22104BE  22271.58334491 -.00070738  00000-0 -50272-3 0  9994,2 53640  53.2139 132.2879 0001482 132.9393  29.4842 15.73250953  1303,6727.75,91.53,350.612,348.61800000000005,0.0
53640.0,STARLINK-4597,PAYLOAD,2022-09-28 22:00:00,15.73191173,0.0001256,53.2135,130.6402,125.861,125.5147,-0.00096379,-0.00133702,0.0,0 STARLINK-4597,1 53640U 22104BE  22271.91667824 -.00133702  00000-0 -96379-3 0  9999,2 53640  53.2135 130.6402 0001256 125.8610 125.5147 15.73191173  1309,6727.92,91.534,350.63,348.94,0.0
53640.0,STARLINK-4597,PAYLOAD,2022-09-29 06:00:00,15.73103794,0.000129,53.2131,128.9899,127.7702,212.4696,0.00017803,0.00024336,0.0,0 STARLINK-4597,1 53640U 22104BE  22272.25001157  .00024336  00000-0  17803-3 0  9993,2 53640  53.2131 128.9899 0001290 127.7702 212.4696 15.73103794  5082,6728.169,91.539,350.902,349.167,0.0
53640.0,STARLINK-4597,PAYLOAD,2022-09-29 14:00:01,15.73116846,0.0001447,53.2133,127.3393,135.6031,293.4537,0.00059536,0.00083471,0.0,0 STARLINK-4597,1 53640U 22104BE  22272.58334491  .00083471  00000-0  59536-3 0  9993,2 53640  53.2133 127.3393 0001447 135.6031 293.4537 15.73116846  1309,6728.132,91.538,350.971,349.024,0.0
53640.0,STARLINK-4597,PAYLOAD,2022-09-29 20:00:01,15.73167909,0.0001256,53.2133,126.1039,130.8636,274.8989,0.00018975,0.00026056,0.0,0 STARLINK-4597,1 53640U 22104BE  22272.83335648  .00026056  00000-0  18975-3 0  9994,2 53640  53.2133 126.1039 0001256 130.8636 274.8989 15.73167909  5178,6727.986999999999,91.535,350.69699999999995,349.00699999999995,0.0
53640.0,STARLINK-4597,PAYLOAD,2022-09-29 22:00:00,15.73163974,0.0001193999999999,53.2134,125.6919,128.7937,29.1301,0.0004128999999999,0.00057637,0.0,0 STARLINK-4597,1 53640U 22104BE  22272.91667824  .00057637  00000-0  41290-3 0  9992,2 53640  53.2134 125.6919 0001194 128.7937  29.1301 15.73163974  1309,6727.998000000001,91.535,350.666,349.06,0.0
53640.0,STARLINK-4597,PAYLOAD,2022-09-30 06:00:02,15.7323326,0.0001173,53.2136,124.0413,132.351,114.5411,1.8781e-05,2.02e-05,0.0,0 STARLINK-4597,1 53640U 22104BE  22273.25002315  .00002020  00000-0  18781-4 0  9994,2 53640  53.2136 124.0413 0001173 132.3510 114.5411 15.73233260  5242,6727.8,91.531,350.455,348.876,0.0
53640.0,STARLINK-4597,PAYLOAD,2022-09-30 14:00:01,15.73244871,0.0001365,53.2141,122.3905,133.3666,202.4411,9.5945e-05,0.00012891,0.0,0 STARLINK-4597,1 53640U 22104BE  22273.58334491  .00012891  00000-0  95945-4 0  9997,2 53640  53.2141 122.3905 0001365 133.3666 202.4411 15.73244871  1301,6727.767,91.531,350.551,348.714,0.0
53640.0,STARLINK-4597,PAYLOAD,2022-09-30 22:00:00,15.73264431,0.0001149,53.214,120.7429,125.0359,299.7596,-0.0002711,-0.00038597,0.0,0 STARLINK-4597,1 53640U 22104BE  22273.91667824 -.00038597  00000-0 -27110-3 0  9994,2 53640  53.2140 120.7429 0001149 125.0359 299.7596 15.73264431  1307,6727.7109999999975,91.529,350.349,348.80300000000005,0.0
53640.0,STARLINK-4597,PAYLOAD,2022-10-01 14:00:01,15.73233935,0.0001372,53.214,117.4417,133.564,109.1725,-5.395e-05,-8.195e-05,0.0,0 STARLINK-4597,1 53640U 22104BE  22274.58334491 -.00008195  00000-0 -53950-4 0  9992,2 53640  53.2140 117.4417 0001372 133.5640 109.1725 15.73233935  1305,6727.7980000000025,91.531,350.586,348.74,0.0
53640.0,STARLINK-4597,PAYLOAD,2022-10-01 22:00:00,15.73214432,0.000118,53.2141,115.7942,123.4349,208.2787,-0.00064789,-0.00090628,0.0,0 STARLINK-4597,1 53640U 22104BE  22274.91667824 -.00090628  00000-0 -64789-3 0  9991,2 53640  53.2141 115.7942 0001180 123.4349 208.2787 15.73214432  1301,6727.854,91.532,350.51300000000015,348.925,0.0
53640.0,STARLINK-4597,PAYLOAD,2022-10-02 14:00:01,15.73140637,0.0001277,53.2148,112.4932,129.2,20.291,0.00052445,0.00073441,0.0,0 STARLINK-4597,1 53640U 22104BE  22275.58334491  .00073441  00000-0  52445-3 0  9994,2 53640  53.2148 112.4932 0001277 129.2000  20.2910 15.73140637  1301,6728.064,91.537,350.789,349.07,0.0
53640.0,STARLINK-4597,PAYLOAD,2022-10-02 22:00:00,15.73174706,0.0001065,53.2148,110.8458,114.6809,123.7058,0.00067649,0.000953,0.0,0 STARLINK-4597,1 53640U 22104BE  22275.91667824  .00095300  00000-0  67649-3 0  9990,2 53640  53.2148 110.8458 0001065 114.6809 123.7058 15.73174706  1302,6727.967,91.535,350.5490000000001,349.116,0.0
53640.0,STARLINK-4597,PAYLOAD,2022-10-03 14:00:01,15.73268309,0.000139,53.2146,107.5449,119.8834,296.4508,-0.0003249,-0.00046102,0.0,0 STARLINK-4597,1 53640U 22104BE  22276.58334491 -.00046102  00000-0 -32490-3 0  9999,2 53640  53.2146 107.5449 0001390 119.8834 296.4508 15.73268309  1300,6727.7,91.529,350.501,348.63,0.0
53640.0,STARLINK-4597,PAYLOAD,2022-10-03 22:00:00,15.73222459,0.0001177999999999,53.2146,105.8971,109.5523,35.787,7.153e-05,9.44e-05,0.0,0 STARLINK-4597,1 53640U 22104BE  22276.91667824  .00009440  00000-0  71530-4 0  9996,2 53640  53.2146 105.8971 0001178 109.5523  35.7870 15.73222459  1308,6727.831,91.532,350.48900000000015,348.904,0.0
